CCSDS_OMM_VERS = 2.0
CREATION_DATE  = 
ORIGINATOR     = 

OBJECT_NAME    = STARLINK-36557
OBJECT_ID      = 2026-012H
CENTER_NAME    = EARTH
REF_FRAME      = TEME
TIME_SYSTEM    = UTC
MEAN_ELEMENT_THEORY = SGP/SGP4

EPOCH          = 2026-02-06T12:00:01.999296
MEAN_MOTION    = 15.72801602
ECCENTRICITY   = .0001239
INCLINATION    = 42.9987
RA_OF_ASC_NODE = 132.7030
ARG_OF_PERICENTER = 291.4224
MEAN_ANOMALY   = 190.1843

EPHEMERIS_TYPE = 0
CLASSIFICATION_TYPE = U
NORAD_CAT_ID   = 67500
ELEMENT_SET_NO = 999
REV_AT_EPOCH   = 405
BSTAR          = -.1606E-1
MEAN_MOTION_DOT = -.1979541E-1
MEAN_MOTION_DDOT = 0

CCSDS_OMM_VERS = 2.0
CREATION_DATE  = 
ORIGINATOR     = 

OBJECT_NAME    = STARLINK-36433
OBJECT_ID      = 2026-012J
CENTER_NAME    = EARTH
REF_FRAME      = TEME
TIME_SYSTEM    = UTC
MEAN_ELEMENT_THEORY = SGP/SGP4

EPOCH          = 2026-02-06T12:00:01.999296
MEAN_MOTION    = 15.73168754
ECCENTRICITY   = .0001295
INCLINATION    = 42.9986
RA_OF_ASC_NODE = 132.6853
ARG_OF_PERICENTER = 287.9291
MEAN_ANOMALY   = 200.7013

EPHEMERIS_TYPE = 0
CLASSIFICATION_TYPE = U
NORAD_CAT_ID   = 67501
ELEMENT_SET_NO = 999
REV_AT_EPOCH   = 405
BSTAR          = -.15879E-1
MEAN_MOTION_DOT = -.1987589E-1
MEAN_MOTION_DDOT = 0

CCSDS_OMM_VERS = 2.0
CREATION_DATE  = 
ORIGINATOR     = 

OBJECT_NAME    = STARLINK-36554
OBJECT_ID      = 2026-012K
CENTER_NAME    = EARTH
REF_FRAME      = TEME
TIME_SYSTEM    = UTC
MEAN_ELEMENT_THEORY = SGP/SGP4

EPOCH          = 2026-02-06T12:00:01.999296
MEAN_MOTION    = 15.68420932
ECCENTRICITY   = .000135
INCLINATION    = 42.9991
RA_OF_ASC_NODE = 132.7917
ARG_OF_PERICENTER = 289.3289
MEAN_ANOMALY   = 157.3083

EPHEMERIS_TYPE = 0
CLASSIFICATION_TYPE = U
NORAD_CAT_ID   = 67502
ELEMENT_SET_NO = 999
REV_AT_EPOCH   = 399
BSTAR          = -.19306E-1
MEAN_MOTION_DOT = -.1976677E-1
MEAN_MOTION_DDOT = 0

CCSDS_OMM_VERS = 2.0
CREATION_DATE  = 
ORIGINATOR     = 

OBJECT_NAME    = STARLINK-36552
OBJECT_ID      = 2026-012L
CENTER_NAME    = EARTH
REF_FRAME      = TEME
TIME_SYSTEM    = UTC
MEAN_ELEMENT_THEORY = SGP/SGP4

EPOCH          = 2026-02-06T12:00:01.999296
MEAN_MOTION    = 15.74182428
ECCENTRICITY   = .0001157
INCLINATION    = 42.9988
RA_OF_ASC_NODE = 132.6446
ARG_OF_PERICENTER = 292.2999
MEAN_ANOMALY   = 212.5041

EPHEMERIS_TYPE = 0
CLASSIFICATION_TYPE = U
NORAD_CAT_ID   = 67503
ELEMENT_SET_NO = 999
REV_AT_EPOCH   = 405
BSTAR          = -.15141E-1
MEAN_MOTION_DOT = -.1981489E-1
MEAN_MOTION_DDOT = 0

CCSDS_OMM_VERS = 2.0
CREATION_DATE  = 
ORIGINATOR     = 

OBJECT_NAME    = STARLINK-36512
OBJECT_ID      = 2026-012M
CENTER_NAME    = EARTH
REF_FRAME      = TEME
TIME_SYSTEM    = UTC
MEAN_ELEMENT_THEORY = SGP/SGP4

EPOCH          = 2026-02-06T12:00:01.999296
MEAN_MOTION    = 15.72181256
ECCENTRICITY   = .0001202
INCLINATION    = 42.9987
RA_OF_ASC_NODE = 132.6691
ARG_OF_PERICENTER = 291.7525
MEAN_ANOMALY   = 203.0885

EPHEMERIS_TYPE = 0
CLASSIFICATION_TYPE = U
NORAD_CAT_ID   = 67504
ELEMENT_SET_NO = 999
REV_AT_EPOCH   = 405
BSTAR          = -.16521E-1
MEAN_MOTION_DOT = -.1982177E-1
MEAN_MOTION_DDOT = 0

CCSDS_OMM_VERS = 2.0
CREATION_DATE  = 
ORIGINATOR     = 

OBJECT_NAME    = STARLINK-36545
OBJECT_ID      = 2026-012N
CENTER_NAME    = EARTH
REF_FRAME      = TEME
TIME_SYSTEM    = UTC
MEAN_ELEMENT_THEORY = SGP/SGP4

EPOCH          = 2026-02-06T12:00:01.999296
MEAN_MOTION    = 15.72741722
ECCENTRICITY   = .0001163
INCLINATION    = 42.9989
RA_OF_ASC_NODE = 132.6500
ARG_OF_PERICENTER = 287.7048
MEAN_ANOMALY   = 214.8565

EPHEMERIS_TYPE = 0
CLASSIFICATION_TYPE = U
NORAD_CAT_ID   = 67505
ELEMENT_SET_NO = 999
REV_AT_EPOCH   = 405
BSTAR          = -.16105E-1
MEAN_MOTION_DOT = -.197981E-1
MEAN_MOTION_DDOT = 0

CCSDS_OMM_VERS = 2.0
CREATION_DATE  = 
ORIGINATOR     = 

OBJECT_NAME    = STARLINK-36553
OBJECT_ID      = 2026-012P
CENTER_NAME    = EARTH
REF_FRAME      = TEME
TIME_SYSTEM    = UTC
MEAN_ELEMENT_THEORY = SGP/SGP4

EPOCH          = 2026-02-06T12:00:01.999296
MEAN_MOTION    = 15.74092016
ECCENTRICITY   = .0001247
INCLINATION    = 42.9988
RA_OF_ASC_NODE = 132.6141
ARG_OF_PERICENTER = 283.5186
MEAN_ANOMALY   = 233.4013

EPHEMERIS_TYPE = 0
CLASSIFICATION_TYPE = U
NORAD_CAT_ID   = 67506
ELEMENT_SET_NO = 999
REV_AT_EPOCH   = 405
BSTAR          = -.15199E-1
MEAN_MOTION_DOT = -.1981371E-1
MEAN_MOTION_DDOT = 0

CCSDS_OMM_VERS = 2.0
CREATION_DATE  = 
ORIGINATOR     = 

OBJECT_NAME    = STARLINK-36521
OBJECT_ID      = 2026-012Q
CENTER_NAME    = EARTH
REF_FRAME      = TEME
TIME_SYSTEM    = UTC
MEAN_ELEMENT_THEORY = SGP/SGP4

EPOCH          = 2026-02-06T12:00:01.999296
MEAN_MOTION    = 15.74050805
ECCENTRICITY   = .0001265
INCLINATION    = 42.9986
RA_OF_ASC_NODE = 132.6009
ARG_OF_PERICENTER = 286.9489
MEAN_ANOMALY   = 235.0814

EPHEMERIS_TYPE = 0
CLASSIFICATION_TYPE = U
NORAD_CAT_ID   = 67507
ELEMENT_SET_NO = 999
REV_AT_EPOCH   = 405
BSTAR          = -.1527E-1
MEAN_MOTION_DOT = -.1986351E-1
MEAN_MOTION_DDOT = 0

CCSDS_OMM_VERS = 2.0
CREATION_DATE  = 
ORIGINATOR     = 

OBJECT_NAME    = STARLINK-36526
OBJECT_ID      = 2026-012R
CENTER_NAME    = EARTH
REF_FRAME      = TEME
TIME_SYSTEM    = UTC
MEAN_ELEMENT_THEORY = SGP/SGP4

EPOCH          = 2026-02-06T12:00:01.999296
MEAN_MOTION    = 15.74025531
ECCENTRICITY   = .0001038
INCLINATION    = 42.9991
RA_OF_ASC_NODE = 132.5868
ARG_OF_PERICENTER = 286.0036
MEAN_ANOMALY   = 241.6048

EPHEMERIS_TYPE = 0
CLASSIFICATION_TYPE = U
NORAD_CAT_ID   = 67508
ELEMENT_SET_NO = 999
REV_AT_EPOCH   = 405
BSTAR          = -.1522E-1
MEAN_MOTION_DOT = -.1978478E-1
MEAN_MOTION_DDOT = 0

CCSDS_OMM_VERS = 2.0
CREATION_DATE  = 
ORIGINATOR     = 

OBJECT_NAME    = STARLINK-36541
OBJECT_ID      = 2026-012S
CENTER_NAME    = EARTH
REF_FRAME      = TEME
TIME_SYSTEM    = UTC
MEAN_ELEMENT_THEORY = SGP/SGP4

EPOCH          = 2026-02-06T12:00:01.999296
MEAN_MOTION    = 15.56862010
ECCENTRICITY   = .0001458
INCLINATION    = 42.9989
RA_OF_ASC_NODE = 133.1194
ARG_OF_PERICENTER = 264.4913
MEAN_ANOMALY   = 48.9463

EPHEMERIS_TYPE = 0
CLASSIFICATION_TYPE = U
NORAD_CAT_ID   = 67509
ELEMENT_SET_NO = 999
REV_AT_EPOCH   = 399
BSTAR          = -.3597E-1
MEAN_MOTION_DOT = -.2329562E-1
MEAN_MOTION_DDOT = 0

CCSDS_OMM_VERS = 2.0
CREATION_DATE  = 
ORIGINATOR     = 

OBJECT_NAME    = STARLINK-36549
OBJECT_ID      = 2026-012T
CENTER_NAME    = EARTH
REF_FRAME      = TEME
TIME_SYSTEM    = UTC
MEAN_ELEMENT_THEORY = SGP/SGP4

EPOCH          = 2026-02-06T12:00:01.999296
MEAN_MOTION    = 15.72489189
ECCENTRICITY   = .000116
INCLINATION    = 42.9988
RA_OF_ASC_NODE = 132.3879
ARG_OF_PERICENTER = 275.6931
MEAN_ANOMALY   = 329.5908

EPHEMERIS_TYPE = 0
CLASSIFICATION_TYPE = U
NORAD_CAT_ID   = 67510
ELEMENT_SET_NO = 999
REV_AT_EPOCH   = 399
BSTAR          = -.16131E-1
MEAN_MOTION_DOT = -.1963586E-1
MEAN_MOTION_DDOT = 0

CCSDS_OMM_VERS = 2.0
CREATION_DATE  = 
ORIGINATOR     = 

OBJECT_NAME    = STARLINK-36540
OBJECT_ID      = 2026-012U
CENTER_NAME    = EARTH
REF_FRAME      = TEME
TIME_SYSTEM    = UTC
MEAN_ELEMENT_THEORY = SGP/SGP4

EPOCH          = 2026-02-06T12:00:01.999296
MEAN_MOTION    = 15.57116801
ECCENTRICITY   = .000123
INCLINATION    = 42.9989
RA_OF_ASC_NODE = 133.0988
ARG_OF_PERICENTER = 277.1433
MEAN_ANOMALY   = 44.8381

EPHEMERIS_TYPE = 0
CLASSIFICATION_TYPE = U
NORAD_CAT_ID   = 67511
ELEMENT_SET_NO = 999
REV_AT_EPOCH   = 405
BSTAR          = -.36732E-1
MEAN_MOTION_DOT = -.2392466E-1
MEAN_MOTION_DDOT = 0

