STARLINK-36557          
1 67500U 26012H   26037.50002314 -.01979541  00000+0 -16060-1 0  9993
2 67500  42.9987 132.7030 0001239 291.4224 190.1843 15.72801602  4051
STARLINK-36433          
1 67501U 26012J   26037.50002314 -.01987589  00000+0 -15879-1 0  9992
2 67501  42.9986 132.6853 0001295 287.9291 200.7013 15.73168754  4051
STARLINK-36554          
1 67502U 26012K   26037.50002314 -.01976677  00000+0 -19306-1 0  9998
2 67502  42.9991 132.7917 0001350 289.3289 157.3083 15.68420932  3994
STARLINK-36552          
1 67503U 26012L   26037.50002314 -.01981489  00000+0 -15141-1 0  9999
2 67503  42.9988 132.6446 0001157 292.2999 212.5041 15.74182428  4051
STARLINK-36512          
1 67504U 26012M   26037.50002314 -.01982177  00000+0 -16521-1 0  9998
2 67504  42.9987 132.6691 0001202 291.7525 203.0885 15.72181256  4050
STARLINK-36545          
1 67505U 26012N   26037.50002314 -.01979810  00000+0 -16105-1 0  9997
2 67505  42.9989 132.6500 0001163 287.7048 214.8565 15.72741722  4058
STARLINK-36553          
1 67506U 26012P   26037.50002314 -.01981371  00000+0 -15199-1 0  9995
2 67506  42.9988 132.6141 0001247 283.5186 233.4013 15.74092016  4051
STARLINK-36521          
1 67507U 26012Q   26037.50002314 -.01986351  00000+0 -15270-1 0  9999
2 67507  42.9986 132.6009 0001265 286.9489 235.0814 15.74050805  4053
STARLINK-36526          
1 67508U 26012R   26037.50002314 -.01978478  00000+0 -15220-1 0  9996
2 67508  42.9991 132.5868 0001038 286.0036 241.6048 15.74025531  4059
STARLINK-36541          
1 67509U 26012S   26037.50002314 -.02329562  00000+0 -35970-1 0  9996
2 67509  42.9989 133.1194 0001458 264.4913  48.9463 15.56862010  3998
STARLINK-36549          
1 67510U 26012T   26037.50002314 -.01963586  00000+0 -16131-1 0  9995
2 67510  42.9988 132.3879 0001160 275.6931 329.5908 15.72489189  3996
STARLINK-36540          
1 67511U 26012U   26037.50002314 -.02392466  00000+0 -36732-1 0  9999
2 67511  42.9989 133.0988 0001230 277.1433  44.8381 15.57116801  4050
